NORAD_CAT_ID,OBJECT_NAME,OBJECT_TYPE,EPOCH,MEAN_MOTION,ECCENTRICITY,INCLINATION,RA_OF_ASC_NODE,ARG_OF_PERICENTER,MEAN_ANOMALY,BSTAR,MEAN_MOTION_DOT,MEAN_MOTION_DDOT,TLE_LINE0,TLE_LINE1,TLE_LINE2,SEMIMAJOR_AXIS,PERIOD,APOGEE,PERIGEE,DECAYED
53543.0,STARLINK-4297,PAYLOAD,2024-06-29 13:23:49,15.08827096,0.0001295,53.2168,319.0899,77.2539,282.8597,-4.2251e-05,-9.6e-06,0.0,0 STARLINK-4297,1 53543U 22101S   24181.55821491 -.00000960  00000-0 -42251-4 0  9992,2 53543  53.2168 319.0899 0001295  77.2539 282.8597 15.08827096102983,6917.92,95.438,540.681,538.889,0.0
53543.0,STARLINK-4297,PAYLOAD,2024-06-29 19:45:22,15.08830523,0.0001602,53.2169,317.8993,72.6364,287.4803,-1.9564e-05,-5.99e-06,0.0,0 STARLINK-4297,1 53543U 22101S   24181.82317447 -.00000599  00000-0 -19564-4 0  9992,2 53543  53.2169 317.8993 0001602  72.6364 287.4803 15.08830523103714,6917.909,95.438,540.883,538.666,0.0
53543.0,STARLINK-4297,PAYLOAD,2024-06-30 14:49:59,15.0884487,0.0001129,53.217,314.3287,76.1765,283.9352,-9.4971e-05,-1.799e-05,0.0,0 STARLINK-4297,1 53543U 22101S   24182.61805010 -.00001799  00000-0 -94971-4 0  9996,2 53543  53.2170 314.3287 0001129  76.1765 283.9352 15.08844870103835,6917.866,95.437,540.512,538.949,0.0
53543.0,STARLINK-4297,PAYLOAD,2024-06-30 18:00:44,15.08853318,0.0001129,53.2175,313.735,88.2186,271.8935,7.8065e-05,9.55e-06,0.0,0 STARLINK-4297,1 53543U 22101S   24182.75051913  .00000955  00000-0  78065-4 0  9993,2 53543  53.2175 313.7350 0001129  88.2186 271.8935 15.08853318103161,6917.84,95.437,540.486,538.924,0.0
53543.0,STARLINK-4297,PAYLOAD,2024-07-01 01:57:41,15.08845385,0.0001539,53.2175,312.2501,63.0383,297.0766,1.2823e-05,-8.4e-07,0.0,0 STARLINK-4297,1 53543U 22101S   24183.08172684 -.00000084  00000-0  12823-4 0  9993,2 53543  53.2175 312.2501 0001539  63.0383 297.0766 15.08845385103211,6917.864,95.437,540.794,538.664,0.0
53543.0,STARLINK-4297,PAYLOAD,2024-07-01 13:05:24,15.08823959,0.0001696,53.2176,310.1662,77.0138,283.1043,6.7927e-05,7.93e-06,0.0,0 STARLINK-4297,1 53543U 22101S   24183.54542160  .00000793  00000-0  67927-4 0  9995,2 53543  53.2176 310.1662 0001696  77.0138 283.1043 15.08823959103288,6917.929,95.439,540.968,538.621,0.0
53543.0,STARLINK-4297,PAYLOAD,2024-07-01 14:40:47,15.08815053,0.0001096,53.2187,309.869,73.7747,286.3366,0.00016829,2.39e-05,0.0,0 STARLINK-4297,1 53543U 22101S   24183.61166428  .00002390  00000-0  16829-3 0  9991,2 53543  53.2187 309.8690 0001096  73.7747 286.3366 15.08815053103985,6917.957,95.439,540.58,539.063,0.0
53543.0,STARLINK-4297,PAYLOAD,2024-07-01 17:51:34,15.08821295,0.0001228,53.2174,309.2741,78.6897,281.4233,-1.6339e-05,-5.48e-06,0.0,0 STARLINK-4297,1 53543U 22101S   24183.74414623 -.00000548  00000-0 -16339-4 0  9990,2 53543  53.2174 309.2741 0001228  78.6897 281.4233 15.08821295104007,6917.938,95.439,540.652,538.953,0.0
53543.0,STARLINK-4297,PAYLOAD,2024-07-02 01:48:30,15.0881462,0.0001341,53.2172,307.7877,78.9053,281.209,-5.6654e-05,-1.189e-05,0.0,0 STARLINK-4297,1 53543U 22101S   24184.07535611 -.00001189  00000-0 -56654-4 0  9994,2 53543  53.2172 307.7877 0001341  78.9053 281.2090 15.08814620103362,6917.958,95.439,540.751,538.895,0.0
53543.0,STARLINK-4297,PAYLOAD,2024-07-02 14:31:35,15.08832338,0.0001397,53.2167,305.4098,88.6421,271.4731,-9.2759e-05,-1.764e-05,0.0,0 STARLINK-4297,1 53543U 22101S   24184.60527334 -.00001764  00000-0 -92759-4 0  9991,2 53543  53.2167 305.4098 0001397  88.6421 271.4731 15.08832338104139,6917.904,95.438,540.735,538.802,0.0
53543.0,STARLINK-4297,PAYLOAD,2024-07-03 01:39:16,15.08846668,0.0001122,53.2172,303.3299,89.4629,270.6492,0.00010866,1.442e-05,0.0,0 STARLINK-4297,1 53543U 22101S   24185.06893695  .00001442  00000-0  10866-3 0  9997,2 53543  53.2172 303.3299 0001122  89.4629 270.6492 15.08846668103517,6917.86,95.437,540.501,538.949,0.0
53543.0,STARLINK-4297,PAYLOAD,2024-07-03 12:46:57,15.08855779,0.000149,53.2176,301.251,72.4404,287.6751,0.00017551,2.508e-05,0.0,0 STARLINK-4297,1 53543U 22101S   24185.53260835  .00002508  00000-0  17551-3 0  9995,2 53543  53.2176 301.2510 0001490  72.4404 287.6751 15.08855779103581,6917.832,95.437,540.728,538.666,0.0
53543.0,STARLINK-4297,PAYLOAD,2024-07-03 14:22:20,15.08856473,0.000129,53.2179,300.9511,87.1214,272.9926,0.00023378,3.436e-05,0.0,0 STARLINK-4297,1 53543U 22101S   24185.59884527  .00003436  00000-0  23378-3 0  9996,2 53543  53.2179 300.9511 0001290  87.1214 272.9926 15.08856473104282,6917.83,95.437,540.587,538.803,0.0
53543.0,STARLINK-4297,PAYLOAD,2024-07-04 12:37:45,15.08841368,0.0001167,53.2155,296.7817,100.6383,259.4741,0.00012369,1.681e-05,0.0,0 STARLINK-4297,1 53543U 22101S   24186.52621724  .00001681  00000-0  12369-3 0  9996,2 53543  53.2155 296.7817 0001167 100.6383 259.4741 15.08841368103739,6917.876,95.437,540.549,538.934,0.0
53543.0,STARLINK-4297,PAYLOAD,2024-07-04 14:13:08,15.08851118,0.0001017,53.2162,296.4855,109.6113,250.4989,5.4955e-06,-2e-06,0.0,0 STARLINK-4297,1 53543U 22101S   24186.59245456 -.00000200  00000-0  54955-5 0  9993,2 53543  53.2162 296.4855 0001017 109.6113 250.4989 15.08851118104437,6917.846,95.437,540.415,539.008,0.0
53543.0,STARLINK-4297,PAYLOAD,2024-07-05 14:03:55,15.08850969,0.0001246,53.2183,292.0352,93.9217,266.1918,-3.8183e-05,-8.96e-06,0.0,0 STARLINK-4297,1 53543U 22101S   24187.58605329 -.00000896  00000-0 -38183-4 0  9998,2 53543  53.2183 292.0352 0001246  93.9217 266.1918 15.08850969104583,6917.847,95.437,540.574,538.85,0.0
53543.0,STARLINK-4297,PAYLOAD,2024-07-06 12:19:19,15.08831594,0.0001485,53.2193,287.873,109.0522,251.0631,-3.6502e-06,-3.46e-06,0.0,0 STARLINK-4297,1 53543U 22101S   24188.51342126 -.00000346  00000-0 -36502-5 0  9999,2 53543  53.2193 287.8730 0001485 109.0522 251.0631 15.08831594104037,6917.906,95.438,540.798,538.744,0.0
53543.0,STARLINK-4297,PAYLOAD,2024-07-06 13:54:42,15.08833865,0.0001493,53.2188,287.5738,106.0734,254.0423,-1.079e-05,-4.6e-06,0.0,0 STARLINK-4297,1 53543U 22101S   24188.57966033 -.00000460  00000-0 -10790-4 0  9991,2 53543  53.2188 287.5738 0001493 106.0734 254.0423 15.08833865104739,6917.899,95.438,540.797,538.731,0.0
53543.0,STARLINK-4297,PAYLOAD,2024-07-07 13:45:29,15.08842833,0.0001054,53.2161,283.1096,81.2076,278.9035,2.3932e-05,9.3e-07,0.0,0 STARLINK-4297,1 53543U 22101S   24189.57325580  .00000093  00000-0  23932-4 0  9990,2 53543  53.2161 283.1096 0001054  81.2076 278.9035 15.08842833104880,6917.872,95.437,540.466,539.008,0.0
53543.0,STARLINK-4297,PAYLOAD,2024-07-08 05:39:21,15.08815813,0.0001255,53.2169,280.1363,93.2551,266.8585,0.00037574,5.693e-05,0.0,0 STARLINK-4297,1 53543U 22101S   24190.23566124  .00005693  00000-0  37574-3 0  9993,2 53543  53.2169 280.1363 0001255  93.2551 266.8585 15.08815813104295,6917.954,95.439,540.688,538.951,0.0
53543.0,STARLINK-4297,PAYLOAD,2024-07-08 12:00:53,15.08844047,0.0001267,53.2168,278.947,86.4851,273.6286,8.4284e-05,1.054e-05,0.0,0 STARLINK-4297,1 53543U 22101S   24190.50061382  .00001054  00000-0  84284-4 0  9997,2 53543  53.2168 278.9470 0001267  86.4851 273.6286 15.08844047104338,6917.868,95.437,540.61,538.857,0.0
53543.0,STARLINK-4297,PAYLOAD,2024-07-08 13:36:16,15.08845131,0.0001334,53.2173,278.6494,82.6633,277.4511,0.00011276,1.507e-05,0.0,0 STARLINK-4297,1 53543U 22101S   24190.56685249  .00001507  00000-0  11276-3 0  9990,2 53543  53.2173 278.6494 0001334  82.6633 277.4511 15.08845131105034,6917.865,95.437,540.653,538.807,0.0
53543.0,STARLINK-4297,PAYLOAD,2024-07-09 05:30:07,15.08838867,0.0001587,53.2165,275.6784,60.4778,299.6372,5.2773e-05,5.52e-06,0.0,0 STARLINK-4297,1 53543U 22101S   24191.22925774  .00000552  00000-0  52773-4 0  9991,2 53543  53.2165 275.6784 0001587  60.4778 299.6372 15.08838867104441,6917.884,95.438,540.847,538.651,0.0
53543.0,STARLINK-4297,PAYLOAD,2024-07-09 11:51:40,15.08840852,0.0001427,53.2166,274.4863,81.1994,278.9159,1.87e-05,1e-07,0.0,0 STARLINK-4297,1 53543U 22101S   24191.49421714  .00000010  00000-0  18700-4 0  9996,2 53543  53.2166 274.4863 0001427  81.1994 278.9159 15.08840852105171,6917.878,95.438,540.73,538.756,0.0
53543.0,STARLINK-4297,PAYLOAD,2024-07-10 11:42:27,15.08845048,0.0001279,53.2159,270.0248,91.4485,268.6654,2.2145e-06,-2.53e-06,0.0,0 STARLINK-4297,1 53543U 22101S   24192.48781325 -.00000253  00000-0  22145-5 0  9992,2 53543  53.2159 270.0248 0001279  91.4485 268.6654 15.08845048104634,6917.865,95.437,540.615,538.845,0.0
53543.0,STARLINK-4297,PAYLOAD,2024-07-10 14:53:13,15.08846973,0.0001325,53.2159,269.4297,84.2186,275.8957,-1.339e-05,-5.01e-06,0.0,0 STARLINK-4297,1 53543U 22101S   24192.62029245 -.00000501  00000-0 -13390-4 0  9992,2 53543  53.2159 269.4297 0001325  84.2186 275.8957 15.08846973105343,6917.859,95.437,540.641,538.807,0.0
53543.0,STARLINK-4297,PAYLOAD,2024-07-11 11:33:14,15.0883808,0.0001631,53.217,265.5638,100.0054,260.1123,8.0772e-06,-1.59e-06,0.0,0 STARLINK-4297,1 53543U 22101S   24193.48141740 -.00000159  00000-0  80772-5 0  9999,2 53543  53.2170 265.5638 0001631 100.0054 260.1123 15.08838080105479,6917.886,95.438,540.88,538.623,0.0
53543.0,STARLINK-4297,PAYLOAD,2024-07-11 14:44:00,15.08840084,0.0001599,53.2168,264.9682,100.9902,259.127,1.5857e-05,-3.6e-07,0.0,0 STARLINK-4297,1 53543U 22101S   24193.61389573 -.00000036  00000-0  15857-4 0  9997,2 53543  53.2168 264.9682 0001599 100.9902 259.1270 15.08840084104806,6917.88,95.438,540.851,538.639,0.0
53543.0,STARLINK-4297,PAYLOAD,2024-07-12 11:24:01,15.08842211,0.0001383,53.2165,261.1025,86.4141,273.701,4.4426e-05,4.19e-06,0.0,0 STARLINK-4297,1 53543U 22101S   24194.47501532  .00000419  00000-0  44426-4 0  9991,2 53543  53.2165 261.1025 0001383  86.4141 273.7010 15.08842211105626,6917.874,95.437,540.695,538.782,0.0
53543.0,STARLINK-4297,PAYLOAD,2024-07-12 20:56:20,15.08840341,0.0001437,53.2168,259.318,87.2299,272.8858,2.4024e-05,9.4e-07,0.0,0 STARLINK-4297,1 53543U 22101S   24194.87245714  .00000094  00000-0  24024-4 0  9993,2 53543  53.2168 259.3180 0001437  87.2299 272.8858 15.08840341104994,6917.879,95.438,540.738,538.75,0.0
